NORAD_CAT_ID,OBJECT_NAME,OBJECT_TYPE,EPOCH,MEAN_MOTION,ECCENTRICITY,INCLINATION,RA_OF_ASC_NODE,ARG_OF_PERICENTER,MEAN_ANOMALY,BSTAR,MEAN_MOTION_DOT,MEAN_MOTION_DDOT,TLE_LINE0,TLE_LINE1,TLE_LINE2,SEMIMAJOR_AXIS,PERIOD,APOGEE,PERIGEE,DECAYED
52618.0,STARLINK-3983,PAYLOAD,2022-09-30 18:29:49,15.08840252,0.00014,53.2175,147.1663,72.6621,287.4524,3.0721999999999995e-05,2.01e-06,0.0,0 STARLINK-3983,1 52618U 22052W   22273.77071300  .00000201  00000-0  30722-4 0  9995,2 52618  53.2175 147.1663 0001400  72.6621 287.4524 15.08840252 21385,6917.88,95.438,540.7130000000002,538.776,0.0
52618.0,STARLINK-3983,PAYLOAD,2022-10-01 00:51:21,15.08847071,0.0001486,53.2177,145.9766,64.4735,295.6411,8.379e-05,1.046e-05,0.0,0 STARLINK-3983,1 52618U 22052W   22274.03566682  .00001046  00000-0  83790-4 0  9998,2 52618  53.2177 145.9766 0001486  64.4735 295.6411 15.08847071 21805,6917.859,95.437,540.752,538.696,0.0
52618.0,STARLINK-3983,PAYLOAD,2022-10-01 08:48:17,15.08839908,0.0001484,53.2177,144.4899,66.8877,293.2271,2.6578e-05,1.35e-06,0.0,0 STARLINK-3983,1 52618U 22052W   22274.36687268  .00000135  00000-0  26578-4 0  9997,2 52618  53.2177 144.4899 0001484  66.8877 293.2271 15.08839908 21850,6917.880999999999,95.438,540.7719999999998,538.719,0.0
52618.0,STARLINK-3983,PAYLOAD,2022-10-01 21:31:22,15.08831134,0.0001188,53.2182,142.1125,56.0107,304.0998,0.00018487,2.655e-05,0.0,0 STARLINK-3983,1 52618U 22052W   22274.89679245  .00002655  00000-0  18487-3 0  9999,2 52618  53.2182 142.1125 0001188  56.0107 304.0998 15.08831134 21558,6917.906999999997,95.438,540.594,538.951,0.0
52618.0,STARLINK-3983,PAYLOAD,2022-10-02 08:39:05,15.08834616,0.0001279,53.2179,140.0298,79.3134,280.8002,-6.7305e-05,-1.359e-05,0.0,0 STARLINK-3983,1 52618U 22052W   22275.36047753 -.00001359  00000-0 -67305-4 0  9991,2 52618  53.2179 140.0298 0001279  79.3134 280.8002 15.08834616 22007,6917.897,95.438,540.6469999999998,538.877,0.0
52618.0,STARLINK-3983,PAYLOAD,2022-10-02 21:22:10,15.08831348,0.0001385,53.2174,137.6516,65.0815,295.0321,-5.0212e-05,-1.087e-05,0.0,0 STARLINK-3983,1 52618U 22052W   22275.89040234 -.00001087  00000-0 -50212-4 0  9993,2 52618  53.2174 137.6516 0001385  65.0815 295.0321 15.08831348 21700,6917.906999999997,95.438,540.73,538.814,0.0
52618.0,STARLINK-3983,PAYLOAD,2022-10-03 10:05:14,15.08849798,0.0001438,53.217,135.2734,64.6651,295.449,1.4069999999999998e-06,-2.66e-06,0.0,0 STARLINK-3983,1 52618U 22052W   22276.42030839 -.00000266  00000-0  14070-5 0  9993,2 52618  53.2170 135.2734 0001438  64.6651 295.4490 15.08849798 22164,6917.85,95.437,540.71,538.721,0.0
52618.0,STARLINK-3983,PAYLOAD,2022-10-03 16:26:46,15.08850781,0.0001413,53.2168,134.0836,63.6706,296.4431,8.0263e-05,9.9e-06,0.0,0 STARLINK-3983,1 52618U 22052W   22276.68526420  .00000990  00000-0  80263-4 0  9996,2 52618  53.2168 134.0836 0001413  63.6706 296.4431 15.08850781 21826,6917.847,95.437,540.69,538.735,0.0
52618.0,STARLINK-3983,PAYLOAD,2022-10-03 21:12:56,15.0884096,0.0001488,53.217,133.1932,52.7997,307.313,7.2555e-05,8.67e-06,0.0,0 STARLINK-3983,1 52618U 22052W   22276.88398995  .00000867  00000-0  72555-4 0  9990,2 52618  53.2170 133.1932 0001488  52.7997 307.3130 15.08840960 22231,6917.877,95.437,540.7719999999998,538.7130000000002,0.0
52618.0,STARLINK-3983,PAYLOAD,2022-10-04 05:09:52,15.0884651,0.0001303,53.2174,131.7054,64.5997,295.513,6.1525e-05,6.92e-06,0.0,0 STARLINK-3983,1 52618U 22052W   22277.21518540  .00000692  00000-0  61525-4 0  9999,2 52618  53.2174 131.7054 0001303  64.5997 295.5130 15.08846510 21909,6917.86,95.437,540.627,538.8240000000002,0.0
52618.0,STARLINK-3983,PAYLOAD,2022-10-04 21:03:44,15.08826273,0.0001528,53.2173,128.7287,73.745,286.371,-1.6649e-05,-5.53e-06,0.0,0 STARLINK-3983,1 52618U 22052W   22277.87760172 -.00000553  00000-0 -16649-4 0  9996,2 52618  53.2173 128.7287 0001528  73.7450 286.3710 15.08826273 22005,6917.922,95.438,540.844,538.73,0.0
52618.0,STARLINK-3983,PAYLOAD,2022-10-05 00:14:31,15.08822965,0.0001414,53.2167,128.1364,66.4229,293.6912,-0.0001052,-1.961e-05,0.0,0 STARLINK-3983,1 52618U 22052W   22278.01008875 -.00001961  00000-0 -10520-3 0  9993,2 52618  53.2167 128.1364 0001414  66.4229 293.6912 15.08822965 22408,6917.932,95.439,540.776,538.819,0.0
52618.0,STARLINK-3983,PAYLOAD,2022-10-05 06:36:04,15.08824755,0.0001419999999999,53.2167,126.9471,64.9854,295.1286,-9.9808e-05,-1.875e-05,0.0,0 STARLINK-3983,1 52618U 22052W   22278.27504951 -.00001875  00000-0 -99808-4 0  9998,2 52618  53.2167 126.9471 0001420  64.9854 295.1286 15.08824755 22069,6917.927,95.439,540.774,538.81,0.0
52618.0,STARLINK-3983,PAYLOAD,2022-10-05 16:08:22,15.08838021,0.0001016,53.2184,125.1609,67.5394,292.5705,-0.00012897,-2.34e-05,0.0,0 STARLINK-3983,1 52618U 22052W   22278.67248222 -.00002340  00000-0 -12897-3 0  9998,2 52618  53.2184 125.1609 0001016  67.5394 292.5705 15.08838021 22508,6917.886,95.438,540.4540000000002,539.049,0.0
52618.0,STARLINK-3983,PAYLOAD,2022-10-05 19:19:08,15.08839757,0.0001249,53.2174,124.567,66.4775,293.6348,-8.781e-05,-1.685e-05,0.0,0 STARLINK-3983,1 52618U 22052W   22278.80496043 -.00001685  00000-0 -87810-4 0  9998,2 52618  53.2174 124.5670 0001249  66.4775 293.6348 15.08839757 22149,6917.880999999999,95.438,540.61,538.882,0.0
52618.0,STARLINK-3983,PAYLOAD,2022-10-06 06:26:50,15.088441199999998,0.0001219,53.2174,122.4855,69.5231,290.5892,-0.0001421,-2.549e-05,0.0,0 STARLINK-3983,1 52618U 22052W   22279.26864103 -.00002549  00000-0 -14210-3 0  9998,2 52618  53.2174 122.4855 0001219  69.5231 290.5892 15.08844120 22217,6917.868,95.437,540.576,538.89,0.0
52618.0,STARLINK-3983,PAYLOAD,2022-10-06 20:45:19,15.08826274,0.0001277,53.2173,119.8098,61.5017,298.6104,0.00020294,2.942e-05,0.0,0 STARLINK-3983,1 52618U 22052W   22279.86480396  .00002942  00000-0  20294-3 0  9996,2 52618  53.2173 119.8098 0001277  61.5017 298.6104 15.08826274 22308,6917.922,95.438,540.6709999999998,538.904,0.0
52618.0,STARLINK-3983,PAYLOAD,2022-10-06 23:56:04,15.08879741,0.0001478,53.2175,119.2141,53.1268,306.9859,-0.00039625,-6.596e-05,0.0,0 STARLINK-3983,1 52618U 22052W   22279.99727179 -.00006596  00000-0 -39625-3 0  9992,2 52618  53.2175 119.2141 0001478  53.1268 306.9859 15.08879741 22702,6917.759,95.435,540.646,538.601,0.0
52618.0,STARLINK-3983,PAYLOAD,2022-10-07 07:53:00,15.08839718,0.0001416999999999,53.2171,117.7284,64.3168,295.7971,0.00019697,2.848e-05,0.0,0 STARLINK-3983,1 52618U 22052W   22280.32847862  .00002848  00000-0  19697-3 0  9994,2 52618  53.2171 117.7284 0001417  64.3168 295.7971 15.08839718 22378,6917.880999999999,95.438,540.727,538.766,0.0
52618.0,STARLINK-3983,PAYLOAD,2022-10-07 20:36:06,15.08835216,0.0001436,53.2177,115.3496,60.8122,299.3014,2.0696e-05,4.1e-07,0.0,0 STARLINK-3983,1 52618U 22052W   22280.85840887  .00000041  00000-0  20696-4 0  9997,2 52618  53.2177 115.3496 0001436  60.8122 299.3014 15.08835216 22833,6917.895,95.438,540.753,538.7669999999998,0.0
52618.0,STARLINK-3983,PAYLOAD,2022-10-08 07:43:48,15.08834517,0.0001304,53.2173,113.2669,64.4533,295.6594,4.3855e-05,4.1e-06,0.0,0 STARLINK-3983,1 52618U 22052W   22281.32208949  .00000410  00000-0  43855-4 0  9999,2 52618  53.2173 113.2669 0001304  64.4533 295.6594 15.08834517 22529,6917.897,95.438,540.664,538.86,0.0
52618.0,STARLINK-3983,PAYLOAD,2022-10-08 20:26:53,15.088355800000002,0.0001399,53.2172,110.8886,64.0642,296.0494,-1.1023e-05,-4.63e-06,0.0,0 STARLINK-3983,1 52618U 22052W   22281.85201293 -.00000463  00000-0 -11023-4 0  9994,2 52618  53.2172 110.8886 0001399  64.0642 296.0494 15.08835580 22607,6917.894,95.438,540.727,538.7909999999998,0.0
52618.0,STARLINK-3983,PAYLOAD,2022-10-09 07:34:35,15.08845271,0.000143,53.2172,108.8068,63.7509,296.363,-8.9765e-06,-4.31e-06,0.0,0 STARLINK-3983,1 52618U 22052W   22282.31568650 -.00000431  00000-0 -89765-5 0  9993,2 52618  53.2172 108.8068 0001430  63.7509 296.3630 15.08845271 22670,6917.864000000001,95.437,540.719,538.74,0.0
52618.0,STARLINK-3983,PAYLOAD,2022-10-09 18:42:17,15.08838086,0.0001351,53.2179,106.7259,60.9288,299.1839,5.7358e-05,6.25e-06,0.0,0 STARLINK-3983,1 52618U 22052W   22282.77936732  .00000625  00000-0  57358-4 0  9998,2 52618  53.2179 106.7259 0001351  60.9288 299.1839 15.08838086 22747,6917.886,95.438,540.686,538.817,0.0
52618.0,STARLINK-3983,PAYLOAD,2022-10-10 12:11:31,15.08838184,0.0001416999999999,53.2183,103.4562,52.3817,307.7303,8.036e-05,9.91e-06,0.0,0 STARLINK-3983,1 52618U 22052W   22283.50800664  .00000991  00000-0  80360-4 0  9999,2 52618  53.2183 103.4562 0001417  52.3817 307.7303 15.08838184 22852,6917.886,95.438,540.731,538.771,0.0
52618.0,STARLINK-3983,PAYLOAD,2022-10-10 18:33:04,15.088404999999998,0.0001491,53.2173,102.2651,61.583,298.5312,5.4164e-05,5.74e-06,0.0,0 STARLINK-3983,1 52618U 22052W   22283.77296533  .00000574  00000-0  54164-4 0  9992,2 52618  53.2173 102.2651 0001491  61.5830 298.5312 15.08840500 22892,6917.879,95.438,540.775,538.712,0.0
52618.0,STARLINK-3983,PAYLOAD,2022-10-11 12:02:19,15.08832837,0.0001831,53.2168,98.9944,69.9042,290.2147,-0.00010676,-1.986e-05,0.0,0 STARLINK-3983,1 52618U 22052W   22284.50161539 -.00001986  00000-0 -10676-3 0  9990,2 52618  53.2168  98.9944 0001831  69.9042 290.2147 15.08832837 23381,6917.901999999999,95.438,541.034,538.501,0.0
52618.0,STARLINK-3983,PAYLOAD,2022-10-11 13:37:42,15.08839113,0.0001433,53.2175,98.6966,59.1698,300.9435,-4.7284e-05,-1.04e-05,0.0,0 STARLINK-3983,1 52618U 22052W   22284.56785039 -.00001040  00000-0 -47284-4 0  9990,2 52618  53.2175  98.6966 0001433  59.1698 300.9435 15.08839113 23019,6917.8830000000025,95.438,540.739,538.757,0.0
52618.0,STARLINK-3983,PAYLOAD,2022-10-12 11:53:06,15.08831295,0.0001511,53.218,94.5343,58.4037,301.7103,-1.1289000000000003e-05,-4.68e-06,0.0,0 STARLINK-3983,1 52618U 22052W   22285.49521690 -.00000468  00000-0 -11289-4 0  9993,2 52618  53.2180  94.5343 0001511  58.4037 301.7103 15.08831295 23154,6917.906999999997,95.438,540.817,538.727,0.0
